{
  "type": "FeatureCollection",
  "features": [
    {
      "type": "Feature",
      "properties": {
        "id": 2718108856,
        "tipo": "asilo",
        "name": "Cappellini",
        "operator": "",
        "website": "https://www.comune.rimini.it/vivere-il-comune/luoghi/centro-la-cultura/nido-infanzia-cappellini"
      },
      "geometry": {
        "type": "Point",
        "coordinates": [
          12.5742754,
          44.0714892
        ]
      }
    },
    {
      "type": "Feature",
      "properties": {
        "id": 2718145792,
        "tipo": "universita",
        "name": "UniBo - Campus Corso D'Augusto",
        "operator": "",
        "website": ""
      },
      "geometry": {
        "type": "Point",
        "coordinates": [
          12.5647776,
          44.0627251
        ]
      }
    },
    {
      "type": "Feature",
      "properties": {
        "id": 2718148882,
        "tipo": "asilo",
        "name": "Il Borgo",
        "operator": "",
        "website": "https://www.comune.rimini.it/vivere-il-comune/luoghi/altri-luoghi/scuola-infanzia-il-borgo"
      },
      "geometry": {
        "type": "Point",
        "coordinates": [
          12.5645902,
          44.0655297
        ]
      }
    },
    {
      "type": "Feature",
      "properties": {
        "id": 2718183925,
        "tipo": "scuola",
        "name": "I.S.S.M “G. Lettimi”",
        "operator": "",
        "website": ""
      },
      "geometry": {
        "type": "Point",
        "coordinates": [
          12.5652165,
          44.0591036
        ]
      }
    },
    {
      "type": "Feature",
      "properties": {
        "id": 5174850590,
        "tipo": "universita",
        "name": "UniBo Rimini - Campus Via Angherà",
        "operator": "Università di Bologna",
        "website": ""
      },
      "geometry": {
        "type": "Point",
        "coordinates": [
          12.5699671,
          44.0619874
        ]
      }
    },
    {
      "type": "Feature",
      "properties": {
        "id": 5175027920,
        "tipo": "asilo",
        "name": "",
        "operator": "",
        "website": ""
      },
      "geometry": {
        "type": "Point",
        "coordinates": [
          12.5698635,
          44.0588709
        ]
      }
    },
    {
      "type": "Feature",
      "properties": {
        "id": 11338676558,
        "tipo": "asilo",
        "name": "",
        "operator": "",
        "website": ""
      },
      "geometry": {
        "type": "Point",
        "coordinates": [
          12.5627062,
          44.0715744
        ]
      }
    },
    {
      "type": "Feature",
      "properties": {
        "id": 11636128684,
        "tipo": "asilo",
        "name": "Scuola dell'infanzia Via Gambalunga",
        "operator": "",
        "website": ""
      },
      "geometry": {
        "type": "Point",
        "coordinates": [
          12.5706544,
          44.0643426
        ]
      }
    },
    {
      "type": "Feature",
      "properties": {
        "id": 59452280,
        "tipo": "scuola",
        "name": "Scuola secondaria I grado Aurelio Bertola"
      },
      "geometry": {
        "type": "Polygon",
        "coordinates": [
          [
            [
              12.5652297,
              44.0463153
            ],
            [
              12.565356,
              44.0462208
            ],
            [
              12.5652479,
              44.0461363
            ],
            [
              12.5659165,
              44.0457082
            ],
            [
              12.5657522,
              44.0455736
            ],
            [
              12.5658111,
              44.0455321
            ],
            [
              12.5660526,
              44.045362
            ],
            [
              12.5662355,
              44.0455087
            ],
            [
              12.5664537,
              44.0454893
            ],
            [
              12.5665328,
              44.0459079
            ],
            [
              12.5660527,
              44.0462441
            ],
            [
              12.566465,
              44.0465501
            ],
            [
              12.5659608,
              44.0468933
            ],
            [
              12.5652297,
              44.0463153
            ]
          ]
        ]
      }
    },
    {
      "type": "Feature",
      "properties": {
        "id": 59453964,
        "tipo": "scuola",
        "name": "Scuola primaria E. Toti"
      },
      "geometry": {
        "type": "Polygon",
        "coordinates": [
          [
            [
              12.5603113,
              44.0545087
            ],
            [
              12.5603183,
              44.0544329
            ],
            [
              12.5606227,
              44.0542624
            ],
            [
              12.5609162,
              44.0542643
            ],
            [
              12.5609574,
              44.0542977
            ],
            [
              12.5609834,
              44.0542835
            ],
            [
              12.561141,
              44.0544228
            ],
            [
              12.5612236,
              44.054375
            ],
            [
              12.5613944,
              44.0545274
            ],
            [
              12.5613084,
              44.0545779
            ],
            [
              12.5614639,
              44.0547156
            ],
            [
              12.5614408,
              44.0547293
            ],
            [
              12.5614713,
              44.0547576
            ],
            [
              12.5614166,
              44.0549702
            ],
            [
              12.5611149,
              44.0551565
            ],
            [
              12.5610178,
              44.0551408
            ],
            [
              12.5603113,
              44.0545087
            ]
          ]
        ]
      }
    },
    {
      "type": "Feature",
      "properties": {
        "id": 223795041,
        "tipo": "asilo",
        "name": "La Vela"
      },
      "geometry": {
        "type": "Polygon",
        "coordinates": [
          [
            [
              12.5152231,
              44.1022881
            ],
            [
              12.5153718,
              44.102308
            ],
            [
              12.5153624,
              44.1022853
            ],
            [
              12.5153845,
              44.1022878
            ],
            [
              12.5154012,
              44.1022625
            ],
            [
              12.5154085,
              44.1022717
            ],
            [
              12.5154278,
              44.1022844
            ],
            [
              12.5154479,
              44.1022879
            ],
            [
              12.5154734,
              44.1022808
            ],
            [
              12.5154936,
              44.1022643
            ],
            [
              12.5155012,
              44.1022778
            ],
            [
              12.5155232,
              44.1023038
            ],
            [
              12.5155601,
              44.1023236
            ],
            [
              12.5156058,
              44.1023359
            ],
            [
              12.5156368,
              44.1022327
            ],
            [
              12.5156081,
              44.102239
            ],
            [
              12.5156014,
              44.1022212
            ],
            [
              12.5155804,
              44.1022136
            ],
            [
              12.5155898,
              44.1022065
            ],
            [
              12.5156065,
              44.102187
            ],
            [
              12.5156035,
              44.1021605
            ],
            [
              12.5155842,
              44.1021408
            ],
            [
              12.5156175,
              44.1021273
            ],
            [
              12.5156518,
              44.1021007
            ],
            [
              12.5156724,
              44.1020659
            ],
            [
              12.5155329,
              44.1020397
            ],
            [
              12.5155343,
              44.1020671
            ],
            [
              12.5155075,
              44.1020631
            ],
            [
              12.5154966,
              44.1020868
            ],
            [
              12.5154917,
              44.10208
            ],
            [
              12.5154758,
              44.1020674
            ],
            [
              12.5154534,
              44.1020614
            ],
            [
              12.5154231,
              44.1020695
            ],
            [
              12.515406,
              44.1020975
            ],
            [
              12.5153975,
              44.1020746
            ],
            [
              12.5153738,
              44.1020442
            ],
            [
              12.5153445,
              44.1020267
            ],
            [
              12.5152944,
              44.1020114
            ],
            [
              12.5152595,
              44.1021167
            ],
            [
              12.5152881,
              44.1021129
            ],
            [
              12.5152852,
              44.1021288
            ],
            [
              12.5153268,
              44.1021384
            ],
            [
              12.5152923,
              44.1021686
            ],
            [
              12.5152947,
              44.1021866
            ],
            [
              12.5153097,
              44.1021999
            ],
            [
              12.5153281,
              44.1022031
            ],
            [
              12.5153125,
              44.1022083
            ],
            [
              12.5152699,
              44.1022291
            ],
            [
              12.5152394,
              44.1022556
            ],
            [
              12.5152231,
              44.1022881
            ]
          ]
        ]
      }
    },
    {
      "type": "Feature",
      "properties": {
        "id": 223807144,
        "tipo": "scuola",
        "name": "Scuola primaria \"Villaggio Nuovo\""
      },
      "geometry": {
        "type": "Polygon",
        "coordinates": [
          [
            [
              12.6100037,
              44.0351404
            ],
            [
              12.6102108,
              44.035263
            ],
            [
              12.6102603,
              44.0352194
            ],
            [
              12.6103015,
              44.0352437
            ],
            [
              12.6103711,
              44.0351779
            ],
            [
              12.6100861,
              44.0350098
            ],
            [
              12.6100113,
              44.0350757
            ],
            [
              12.6100508,
              44.035099
            ],
            [
              12.6100037,
              44.0351404
            ]
          ]
        ]
      }
    },
    {
      "type": "Feature",
      "properties": {
        "id": 223807698,
        "tipo": "scuola",
        "name": "Scuola primaria Il Cammino"
      },
      "geometry": {
        "type": "Polygon",
        "coordinates": [
          [
            [
              12.6036515,
              44.0456975
            ],
            [
              12.6040202,
              44.0459207
            ],
            [
              12.604113,
              44.0458408
            ],
            [
              12.6040738,
              44.0458171
            ],
            [
              12.6040998,
              44.0457954
            ],
            [
              12.6041514,
              44.0458264
            ],
            [
              12.604213,
              44.0457739
            ],
            [
              12.6042202,
              44.0457677
            ],
            [
              12.6041602,
              44.0457318
            ],
            [
              12.6041327,
              44.0457556
            ],
            [
              12.603816,
              44.045565
            ],
            [
              12.6038136,
              44.045567
            ],
            [
              12.6036515,
              44.0456975
            ]
          ]
        ]
      }
    },
    {
      "type": "Feature",
      "properties": {
        "id": 223827257,
        "tipo": "scuola",
        "name": "Liceo classico Giulio Cesare"
      },
      "geometry": {
        "type": "Polygon",
        "coordinates": [
          [
            [
              12.571761,
              44.058681
            ],
            [
              12.5717849,
              44.0587497
            ],
            [
              12.5722477,
              44.0590306
            ],
            [
              12.5723414,
              44.0590158
            ],
            [
              12.5725427,
              44.0588531
            ],
            [
              12.5724794,
              44.058815
            ],
            [
              12.5720155,
              44.0585393
            ],
            [
              12.5719605,
              44.058506
            ],
            [
              12.571761,
              44.058681
            ]
          ]
        ]
      }
    },
    {
      "type": "Feature",
      "properties": {
        "id": 223827633,
        "tipo": "universita",
        "name": "UniBo Rimini - complesso Alberti"
      },
      "geometry": {
        "type": "Polygon",
        "coordinates": [
          [
            [
              12.5689813,
              44.0617394
            ],
            [
              12.5690662,
              44.0618313
            ],
            [
              12.5692091,
              44.0618006
            ],
            [
              12.569839,
              44.061495
            ],
            [
              12.5700736,
              44.0613668
            ],
            [
              12.5699905,
              44.0612867
            ],
            [
              12.5699568,
              44.0613064
            ],
            [
              12.5697465,
              44.0611644
            ],
            [
              12.5696564,
              44.0612441
            ],
            [
              12.569788,
              44.0613231
            ],
            [
              12.569201,
              44.0616115
            ],
            [
              12.569085,
              44.0616699
            ],
            [
              12.5691106,
              44.061695
            ],
            [
              12.5689813,
              44.0617394
            ]
          ]
        ]
      }
    },
    {
      "type": "Feature",
      "properties": {
        "id": 223835067,
        "tipo": "asilo",
        "name": "Scuola dell'infanzia Il Volo"
      },
      "geometry": {
        "type": "Polygon",
        "coordinates": [
          [
            [
              12.5818076,
              44.0548292
            ],
            [
              12.5814479,
              44.0551371
            ],
            [
              12.5820274,
              44.0554866
            ],
            [
              12.582387,
              44.0551788
            ],
            [
              12.5818076,
              44.0548292
            ]
          ]
        ]
      }
    },
    {
      "type": "Feature",
      "properties": {
        "id": 223836809,
        "tipo": "universita",
        "name": "UniBo Rimini - complesso Via Teatini"
      },
      "geometry": {
        "type": "Polygon",
        "coordinates": [
          [
            [
              12.5695524,
              44.0602925
            ],
            [
              12.569577,
              44.0603095
            ],
            [
              12.5695638,
              44.0603212
            ],
            [
              12.5696532,
              44.0603828
            ],
            [
              12.5697642,
              44.060459
            ],
            [
              12.5699746,
              44.0602989
            ],
            [
              12.5698995,
              44.0602594
            ],
            [
              12.5697855,
              44.0603483
            ],
            [
              12.5696137,
              44.0602302
            ],
            [
              12.5695524,
              44.0602925
            ]
          ]
        ]
      }
    },
    {
      "type": "Feature",
      "properties": {
        "id": 223836918,
        "tipo": "universita",
        "name": "Università di Bologna - Complesso Navigare Necesse"
      },
      "geometry": {
        "type": "Polygon",
        "coordinates": [
          [
            [
              12.5680229,
              44.0650975
            ],
            [
              12.5681881,
              44.0652095
            ],
            [
              12.5683239,
              44.0651104
            ],
            [
              12.5682368,
              44.0650463
            ],
            [
              12.568328,
              44.0649904
            ],
            [
              12.5682913,
              44.0649565
            ],
            [
              12.5683652,
              44.0649161
            ],
            [
              12.5682825,
              44.0648408
            ],
            [
              12.5680656,
              44.0649616
            ],
            [
              12.5680229,
              44.0650975
            ]
          ]
        ]
      }
    },
    {
      "type": "Feature",
      "properties": {
        "id": 223841149,
        "tipo": "asilo",
        "name": "Scuola dell'infanzia La Resurrezione"
      },
      "geometry": {
        "type": "Polygon",
        "coordinates": [
          [
            [
              12.5576295,
              44.03371
            ],
            [
              12.5576663,
              44.0337484
            ],
            [
              12.5576819,
              44.0338007
            ],
            [
              12.5577873,
              44.0338056
            ],
            [
              12.5578986,
              44.0337534
            ],
            [
              12.5578957,
              44.0337145
            ],
            [
              12.558026,
              44.0337211
            ],
            [
              12.5579601,
              44.0336497
            ],
            [
              12.5579717,
              44.0335746
            ],
            [
              12.5578664,
              44.033572
            ],
            [
              12.557651,
              44.0336594
            ],
            [
              12.5576295,
              44.03371
            ]
          ]
        ]
      }
    },
    {
      "type": "Feature",
      "properties": {
        "id": 430266021,
        "tipo": "scuola",
        "name": "Liceo Classico Dante Alighieri / Liceo Scientifico Georges Lemaitre"
      },
      "geometry": {
        "type": "Polygon",
        "coordinates": [
          [
            [
              12.6024085,
              44.0485187
            ],
            [
              12.602231,
              44.0484076
            ],
            [
              12.6022604,
              44.0483689
            ],
            [
              12.6020975,
              44.0482706
            ],
            [
              12.6020617,
              44.0482613
            ],
            [
              12.6020373,
              44.04828
            ],
            [
              12.6017718,
              44.0481126
            ],
            [
              12.6012296,
              44.0485796
            ],
            [
              12.6008867,
              44.0488774
            ],
            [
              12.6003307,
              44.0493602
            ],
            [
              12.6006629,
              44.0495615
            ],
            [
              12.6006922,
              44.0495405
            ],
            [
              12.6007427,
              44.0495744
            ],
            [
              12.600715,
              44.0495978
            ],
            [
              12.6009723,
              44.0497523
            ],
            [
              12.602131,
              44.0487571
            ],
            [
              12.6024085,
              44.0485187
            ]
          ]
        ]
      }
    },
    {
      "type": "Feature",
      "properties": {
        "id": 434835299,
        "tipo": "scuola",
        "name": "Istituto Tecnico Turistico Marco Polo"
      },
      "geometry": {
        "type": "Polygon",
        "coordinates": [
          [
            [
              12.6091328,
              44.0427713
            ],
            [
              12.6107058,
              44.041435
            ],
            [
              12.6100771,
              44.0410526
            ],
            [
              12.6085042,
              44.042389
            ],
            [
              12.6091328,
              44.0427713
            ]
          ]
        ]
      }
    },
    {
      "type": "Feature",
      "properties": {
        "id": 440037135,
        "tipo": "scuola",
        "name": "Centro educativo Italo-Svizzero Remo Bordoni"
      },
      "geometry": {
        "type": "Polygon",
        "coordinates": [
          [
            [
              12.5747625,
              44.0604625
            ],
            [
              12.5745084,
              44.0603303
            ],
            [
              12.5743448,
              44.0601356
            ],
            [
              12.5743663,
              44.0600875
            ],
            [
              12.5742536,
              44.0598928
            ],
            [
              12.5743421,
              44.0596711
            ],
            [
              12.5744628,
              44.0595574
            ],
            [
              12.5747123,
              44.0594591
            ],
            [
              12.5749349,
              44.0594687
            ],
            [
              12.5750985,
              44.0595073
            ],
            [
              12.5753614,
              44.0596287
            ],
            [
              12.5755473,
              44.0597124
            ],
            [
              12.5757034,
              44.0598487
            ],
            [
              12.5747625,
              44.0604625
            ]
          ]
        ]
      }
    },
    {
      "type": "Feature",
      "properties": {
        "id": 445166543,
        "tipo": "asilo",
        "name": "Scuola dell'infanzia Zavalloni"
      },
      "geometry": {
        "type": "Polygon",
        "coordinates": [
          [
            [
              12.5768943,
              44.0514943
            ],
            [
              12.5768731,
              44.0514038
            ],
            [
              12.5768143,
              44.051332
            ],
            [
              12.5766973,
              44.0512653
            ],
            [
              12.5765358,
              44.0511243
            ],
            [
              12.5761408,
              44.0513696
            ],
            [
              12.5765577,
              44.0517104
            ],
            [
              12.5768943,
              44.0514943
            ]
          ]
        ]
      }
    },
    {
      "type": "Feature",
      "properties": {
        "id": 533840863,
        "tipo": "scuola",
        "name": "Scuola primaria Gaiofana"
      },
      "geometry": {
        "type": "Polygon",
        "coordinates": [
          [
            [
              12.5685493,
              44.0041362
            ],
            [
              12.568177,
              44.0044138
            ],
            [
              12.5675242,
              44.0039502
            ],
            [
              12.5678964,
              44.0038136
            ],
            [
              12.5681375,
              44.003757
            ],
            [
              12.5685609,
              44.0040675
            ],
            [
              12.5685493,
              44.0041362
            ]
          ]
        ]
      }
    },
    {
      "type": "Feature",
      "properties": {
        "id": 687559203,
        "tipo": "scuola",
        "name": "Scuola secondaria I grado Alfredo Panzini"
      },
      "geometry": {
        "type": "Polygon",
        "coordinates": [
          [
            [
              12.5735174,
              44.0591772
            ],
            [
              12.5734931,
              44.0592037
            ],
            [
              12.5740939,
              44.0595333
            ],
            [
              12.5742227,
              44.0595487
            ],
            [
              12.5747403,
              44.0593772
            ],
            [
              12.5749764,
              44.0591285
            ],
            [
              12.5741181,
              44.0586293
            ],
            [
              12.5738271,
              44.058891
            ],
            [
              12.5737959,
              44.058915
            ],
            [
              12.5735174,
              44.0591772
            ]
          ]
        ]
      }
    },
    {
      "type": "Feature",
      "properties": {
        "id": 872771755,
        "tipo": "asilo",
        "name": "Scuola dell'infanzia Il Delfino"
      },
      "geometry": {
        "type": "Polygon",
        "coordinates": [
          [
            [
              12.598781,
              44.0447554
            ],
            [
              12.5992333,
              44.04505
            ],
            [
              12.5996316,
              44.0446916
            ],
            [
              12.5996087,
              44.0446762
            ],
            [
              12.5991954,
              44.0443987
            ],
            [
              12.598781,
              44.0447554
            ]
          ]
        ]
      }
    },
    {
      "type": "Feature",
      "properties": {
        "id": 873142373,
        "tipo": "scuola",
        "name": "Scuola primaria Villaggio Primo maggio"
      },
      "geometry": {
        "type": "Polygon",
        "coordinates": [
          [
            [
              12.573369,
              44.0380085
            ],
            [
              12.5736313,
              44.0379403
            ],
            [
              12.5737789,
              44.0378829
            ],
            [
              12.5739799,
              44.0378138
            ],
            [
              12.5740921,
              44.0377686
            ],
            [
              12.5742457,
              44.0376727
            ],
            [
              12.5743416,
              44.0375396
            ],
            [
              12.5743786,
              44.0375367
            ],
            [
              12.5746471,
              44.0375183
            ],
            [
              12.5748573,
              44.0376377
            ],
            [
              12.5749011,
              44.0376524
            ],
            [
              12.5749586,
              44.0376507
            ],
            [
              12.5751133,
              44.0376076
            ],
            [
              12.5752291,
              44.0375754
            ],
            [
              12.575331,
              44.0376332
            ],
            [
              12.5757447,
              44.0375715
            ],
            [
              12.5757663,
              44.0376521
            ],
            [
              12.5757208,
              44.0376592
            ],
            [
              12.5757297,
              44.0376926
            ],
            [
              12.5757888,
              44.0378998
            ],
            [
              12.5757927,
              44.0380184
            ],
            [
              12.573369,
              44.0380085
            ]
          ]
        ]
      }
    },
    {
      "type": "Feature",
      "properties": {
        "id": 875741251,
        "tipo": "scuola",
        "name": "Scuola primaria M. Griffa"
      },
      "geometry": {
        "type": "Polygon",
        "coordinates": [
          [
            [
              12.5846042,
              44.0601058
            ],
            [
              12.5848797,
              44.0598357
            ],
            [
              12.5847993,
              44.0597858
            ],
            [
              12.584703,
              44.0597259
            ],
            [
              12.5842555,
              44.0599227
            ],
            [
              12.5846042,
              44.0601058
            ]
          ]
        ]
      }
    },
    {
      "type": "Feature",
      "properties": {
        "id": 875741252,
        "tipo": "scuola",
        "name": "Scuola primaria E. De Amicis"
      },
      "geometry": {
        "type": "Polygon",
        "coordinates": [
          [
            [
              12.5785003,
              44.0577687
            ],
            [
              12.5779349,
              44.0573591
            ],
            [
              12.5783268,
              44.0570808
            ],
            [
              12.5785963,
              44.0572771
            ],
            [
              12.5788226,
              44.057439
            ],
            [
              12.5785003,
              44.0577687
            ]
          ]
        ]
      }
    },
    {
      "type": "Feature",
      "properties": {
        "id": 885651433,
        "tipo": "scuola",
        "name": "Scuola primaria Maria Boschetti Alberti"
      },
      "geometry": {
        "type": "Polygon",
        "coordinates": [
          [
            [
              12.5941396,
              44.0491545
            ],
            [
              12.5936299,
              44.0489053
            ],
            [
              12.5940892,
              44.0483926
            ],
            [
              12.5946373,
              44.0486479
            ],
            [
              12.5941396,
              44.0491545
            ]
          ]
        ]
      }
    },
    {
      "type": "Feature",
      "properties": {
        "id": 1089809280,
        "tipo": "scuola",
        "name": "Scuola primaria e dell'infanzia \"San Salvatore\""
      },
      "geometry": {
        "type": "Polygon",
        "coordinates": [
          [
            [
              12.6007226,
              43.9970109
            ],
            [
              12.6005901,
              43.996162
            ],
            [
              12.6009321,
              43.9961066
            ],
            [
              12.602029,
              43.9966585
            ],
            [
              12.6007226,
              43.9970109
            ]
          ]
        ]
      }
    },
    {
      "type": "Feature",
      "properties": {
        "id": 1093117753,
        "tipo": "scuola",
        "name": "Scuola primaria Via Pescara"
      },
      "geometry": {
        "type": "Polygon",
        "coordinates": [
          [
            [
              12.6225788,
              44.0283464
            ],
            [
              12.6220712,
              44.0280145
            ],
            [
              12.6224774,
              44.0276934
            ],
            [
              12.622985,
              44.0280253
            ],
            [
              12.6225788,
              44.0283464
            ]
          ]
        ]
      }
    },
    {
      "type": "Feature",
      "properties": {
        "id": 1147489090,
        "tipo": "scuola",
        "name": "Istituto professionale per i servizi dell'enogastronomia e dell'ospitalità alberghiera \"Sigismondo Pandolfo Malatesta\""
      },
      "geometry": {
        "type": "Polygon",
        "coordinates": [
          [
            [
              12.6066482,
              44.0448821
            ],
            [
              12.6064107,
              44.0447322
            ],
            [
              12.6059776,
              44.0444589
            ],
            [
              12.6065011,
              44.0440368
            ],
            [
              12.6067635,
              44.0438253
            ],
            [
              12.607416,
              44.044221
            ],
            [
              12.6066482,
              44.0448821
            ]
          ]
        ]
      }
    },
    {
      "type": "Feature",
      "properties": {
        "id": 1147677797,
        "tipo": "scuola",
        "name": "Viserba Centro Studi"
      },
      "geometry": {
        "type": "Polygon",
        "coordinates": [
          [
            [
              12.5369206,
              44.0859064
            ],
            [
              12.5364081,
              44.0855324
            ],
            [
              12.5362534,
              44.0854195
            ],
            [
              12.536188,
              44.0853718
            ],
            [
              12.5361064,
              44.0854446
            ],
            [
              12.5356316,
              44.0858679
            ],
            [
              12.5348352,
              44.0854201
            ],
            [
              12.5350555,
              44.085254
            ],
            [
              12.5352811,
              44.0851163
            ],
            [
              12.5353262,
              44.0851564
            ],
            [
              12.5358686,
              44.084763
            ],
            [
              12.5359957,
              44.0846708
            ],
            [
              12.535942,
              44.0846138
            ],
            [
              12.5360203,
              44.084556
            ],
            [
              12.5363905,
              44.0842826
            ],
            [
              12.536446,
              44.0842416
            ],
            [
              12.5362786,
              44.0841088
            ],
            [
              12.5360844,
              44.0839834
            ],
            [
              12.536365,
              44.0837709
            ],
            [
              12.5365514,
              44.0838973
            ],
            [
              12.5367152,
              44.0839955
            ],
            [
              12.5367568,
              44.0839673
            ],
            [
              12.5367955,
              44.0839412
            ],
            [
              12.5371158,
              44.0837242
            ],
            [
              12.5371514,
              44.0837003
            ],
            [
              12.5372041,
              44.0836645
            ],
            [
              12.5373955,
              44.0835349
            ],
            [
              12.5374738,
              44.0835141
            ],
            [
              12.5375639,
              44.0835195
            ],
            [
              12.5383453,
              44.0838844
            ],
            [
              12.5384112,
              44.0839152
            ],
            [
              12.5389268,
              44.084156
            ],
            [
              12.5390008,
              44.084189
            ],
            [
              12.5390569,
              44.084233
            ],
            [
              12.5390829,
              44.0842769
            ],
            [
              12.5390905,
              44.0843167
            ],
            [
              12.5391216,
              44.0843543
            ],
            [
              12.5391523,
              44.0843807
            ],
            [
              12.5390142,
              44.0844751
            ],
            [
              12.5382579,
              44.0849922
            ],
            [
              12.5369206,
              44.0859064
            ]
          ]
        ]
      }
    },
    {
      "type": "Feature",
      "properties": {
        "id": 1147951948,
        "tipo": "asilo",
        "name": "Scuola dell'infanzia Acquamarina"
      },
      "geometry": {
        "type": "Polygon",
        "coordinates": [
          [
            [
              12.5300388,
              44.0859264
            ],
            [
              12.5306025,
              44.085415
            ],
            [
              12.5301263,
              44.0851697
            ],
            [
              12.5300807,
              44.0851928
            ],
            [
              12.5300338,
              44.0852031
            ],
            [
              12.5299779,
              44.0852012
            ],
            [
              12.5299282,
              44.0851889
            ],
            [
              12.5295603,
              44.0849976
            ],
            [
              12.5295117,
              44.0849889
            ],
            [
              12.529454,
              44.0849856
            ],
            [
              12.5294009,
              44.0849981
            ],
            [
              12.529344,
              44.0850243
            ],
            [
              12.5293145,
              44.0850575
            ],
            [
              12.5291062,
              44.0854687
            ],
            [
              12.5291237,
              44.0854768
            ],
            [
              12.5300388,
              44.0859264
            ]
          ]
        ]
      }
    },
    {
      "type": "Feature",
      "properties": {
        "id": 1148292820,
        "tipo": "scuola",
        "name": "Scuola secondaria I grado Agostino Di Duccio"
      },
      "geometry": {
        "type": "Polygon",
        "coordinates": [
          [
            [
              12.6130684,
              44.0295518
            ],
            [
              12.6140252,
              44.028748
            ],
            [
              12.613015,
              44.0281435
            ],
            [
              12.6133592,
              44.0278366
            ],
            [
              12.6133384,
              44.0278353
            ],
            [
              12.613102,
              44.0279819
            ],
            [
              12.6129674,
              44.0278721
            ],
            [
              12.6128655,
              44.0279393
            ],
            [
              12.6129352,
              44.0280025
            ],
            [
              12.6124803,
              44.0282756
            ],
            [
              12.6126756,
              44.0284746
            ],
            [
              12.6123279,
              44.0286819
            ],
            [
              12.6128119,
              44.028912
            ],
            [
              12.6126177,
              44.0292622
            ],
            [
              12.6130684,
              44.0295518
            ]
          ]
        ]
      }
    },
    {
      "type": "Feature",
      "properties": {
        "id": 1148600722,
        "tipo": "asilo",
        "name": "Asilo infantile Alessandro Baldini"
      },
      "geometry": {
        "type": "Polygon",
        "coordinates": [
          [
            [
              12.5707757,
              44.0605617
            ],
            [
              12.5706799,
              44.0605063
            ],
            [
              12.5703419,
              44.060297
            ],
            [
              12.5702234,
              44.060394
            ],
            [
              12.5701047,
              44.0604916
            ],
            [
              12.5701338,
              44.0605062
            ],
            [
              12.5702079,
              44.0605501
            ],
            [
              12.570568,
              44.0607542
            ],
            [
              12.5707764,
              44.0605611
            ],
            [
              12.5707757,
              44.0605617
            ]
          ]
        ]
      }
    },
    {
      "type": "Feature",
      "properties": {
        "id": 1149006877,
        "tipo": "scuola",
        "name": "Scuola secondaria I grado Borgese"
      },
      "geometry": {
        "type": "Polygon",
        "coordinates": [
          [
            [
              12.5764766,
              44.0517527
            ],
            [
              12.5761072,
              44.0514357
            ],
            [
              12.5756275,
              44.0510436
            ],
            [
              12.5752541,
              44.051283
            ],
            [
              12.5757247,
              44.0516746
            ],
            [
              12.5761072,
              44.0519897
            ],
            [
              12.5764766,
              44.0517527
            ]
          ]
        ]
      }
    },
    {
      "type": "Feature",
      "properties": {
        "id": 1149006889,
        "tipo": "asilo",
        "name": "Scuola dell'infanzia Aquilone"
      },
      "geometry": {
        "type": "Polygon",
        "coordinates": [
          [
            [
              12.5912258,
              44.0482767
            ],
            [
              12.5907494,
              44.0479397
            ],
            [
              12.5910819,
              44.0476782
            ],
            [
              12.5915442,
              44.0479901
            ],
            [
              12.5914442,
              44.0480907
            ],
            [
              12.5913249,
              44.0481789
            ],
            [
              12.5912258,
              44.0482767
            ]
          ]
        ]
      }
    },
    {
      "type": "Feature",
      "properties": {
        "id": 1149006911,
        "tipo": "scuola",
        "name": "Scuola primaria Alba Adriatica"
      },
      "geometry": {
        "type": "Polygon",
        "coordinates": [
          [
            [
              12.5977027,
              44.0446348
            ],
            [
              12.5971835,
              44.0442763
            ],
            [
              12.5971678,
              44.0442586
            ],
            [
              12.5971416,
              44.044251
            ],
            [
              12.5970187,
              44.0441669
            ],
            [
              12.5968586,
              44.0440629
            ],
            [
              12.5973373,
              44.0433528
            ],
            [
              12.597773,
              44.0436625
            ],
            [
              12.5977162,
              44.0437018
            ],
            [
              12.5978916,
              44.0438214
            ],
            [
              12.5977346,
              44.0439319
            ],
            [
              12.5976172,
              44.0438571
            ],
            [
              12.5975893,
              44.043879
            ],
            [
              12.5975613,
              44.0439015
            ],
            [
              12.597736,
              44.0440161
            ],
            [
              12.5980757,
              44.0442452
            ],
            [
              12.5977027,
              44.0446348
            ]
          ]
        ]
      }
    },
    {
      "type": "Feature",
      "properties": {
        "id": 1149006915,
        "tipo": "scuola",
        "name": "Scuola primaria Lagomaggio"
      },
      "geometry": {
        "type": "Polygon",
        "coordinates": [
          [
            [
              12.5921735,
              44.0507627
            ],
            [
              12.5917428,
              44.050522
            ],
            [
              12.5919863,
              44.0502374
            ],
            [
              12.5924154,
              44.0504707
            ],
            [
              12.5921735,
              44.0507627
            ]
          ]
        ]
      }
    },
    {
      "type": "Feature",
      "properties": {
        "id": 1153204151,
        "tipo": "asilo",
        "name": "Scuola dell'infanzia Cuore Immacolato di Maria"
      },
      "geometry": {
        "type": "Polygon",
        "coordinates": [
          [
            [
              12.6024468,
              44.0450593
            ],
            [
              12.6026246,
              44.0448888
            ],
            [
              12.6031218,
              44.0451565
            ],
            [
              12.6030812,
              44.0451946
            ],
            [
              12.6030996,
              44.0452046
            ],
            [
              12.6029765,
              44.0453218
            ],
            [
              12.60296,
              44.0453129
            ],
            [
              12.6029444,
              44.0453275
            ],
            [
              12.6024468,
              44.0450593
            ]
          ]
        ]
      }
    },
    {
      "type": "Feature",
      "properties": {
        "id": 1153908202,
        "tipo": "asilo",
        "name": "Scuola dell'infanzia Lucciola"
      },
      "geometry": {
        "type": "Polygon",
        "coordinates": [
          [
            [
              12.5577705,
              44.054242
            ],
            [
              12.5577801,
              44.0542182
            ],
            [
              12.5583852,
              44.0537471
            ],
            [
              12.5589448,
              44.0541785
            ],
            [
              12.5584665,
              44.054486
            ],
            [
              12.558382,
              44.0544368
            ],
            [
              12.5578124,
              44.0542823
            ],
            [
              12.5577905,
              44.0542737
            ],
            [
              12.5577758,
              44.0542613
            ],
            [
              12.5577705,
              44.054242
            ]
          ]
        ]
      }
    },
    {
      "type": "Feature",
      "properties": {
        "id": 1154870698,
        "tipo": "scuola",
        "name": "Istituto superiore di scienze religiose Alberto Marvelli"
      },
      "geometry": {
        "type": "Polygon",
        "coordinates": [
          [
            [
              12.544192,
              44.0305651
            ],
            [
              12.5442309,
              44.0305839
            ],
            [
              12.544222,
              44.0305968
            ],
            [
              12.5447847,
              44.0308458
            ],
            [
              12.5446702,
              44.0310487
            ],
            [
              12.5446501,
              44.0310846
            ],
            [
              12.5447228,
              44.0311054
            ],
            [
              12.5446902,
              44.0311634
            ],
            [
              12.5446679,
              44.0312029
            ],
            [
              12.5446054,
              44.0313141
            ],
            [
              12.5446933,
              44.0313375
            ],
            [
              12.5448222,
              44.031122
            ],
            [
              12.5449067,
              44.0311483
            ],
            [
              12.5449303,
              44.031114
            ],
            [
              12.5447649,
              44.031063
            ],
            [
              12.5448272,
              44.0309446
            ],
            [
              12.5449444,
              44.0308183
            ],
            [
              12.5442505,
              44.0304926
            ],
            [
              12.544192,
              44.0305651
            ]
          ]
        ]
      }
    },
    {
      "type": "Feature",
      "properties": {
        "id": 1177572736,
        "tipo": "scuola",
        "name": "Scuola primaria Lambruschini"
      },
      "geometry": {
        "type": "Polygon",
        "coordinates": [
          [
            [
              12.5476874,
              44.0604294
            ],
            [
              12.5477885,
              44.0608583
            ],
            [
              12.5481733,
              44.061339
            ],
            [
              12.548213,
              44.0613435
            ],
            [
              12.5482987,
              44.0612793
            ],
            [
              12.5484317,
              44.0613113
            ],
            [
              12.5485853,
              44.0609712
            ],
            [
              12.5484428,
              44.0609351
            ],
            [
              12.5484607,
              44.0604633
            ],
            [
              12.5476874,
              44.0604294
            ]
          ]
        ]
      }
    },
    {
      "type": "Feature",
      "properties": {
        "id": 1191778147,
        "tipo": "scuola",
        "name": "Scuola primaria Montessori"
      },
      "geometry": {
        "type": "Polygon",
        "coordinates": [
          [
            [
              12.5492593,
              44.0541171
            ],
            [
              12.5493738,
              44.0538924
            ],
            [
              12.5496001,
              44.0536769
            ],
            [
              12.549414,
              44.0535807
            ],
            [
              12.5493085,
              44.0536825
            ],
            [
              12.5488111,
              44.0534038
            ],
            [
              12.5483437,
              44.053838
            ],
            [
              12.54849,
              44.0538984
            ],
            [
              12.548618,
              44.0539673
            ],
            [
              12.5492593,
              44.0541171
            ]
          ]
        ]
      }
    },
    {
      "type": "Feature",
      "properties": {
        "id": 1192857271,
        "tipo": "asilo",
        "name": "Scuola dell'infanzia La Capriola"
      },
      "geometry": {
        "type": "Polygon",
        "coordinates": [
          [
            [
              12.5823981,
              44.0448781
            ],
            [
              12.5823538,
              44.0448417
            ],
            [
              12.5825767,
              44.0446985
            ],
            [
              12.5823187,
              44.0444908
            ],
            [
              12.5821355,
              44.0446636
            ],
            [
              12.581923,
              44.0444988
            ],
            [
              12.5817815,
              44.0446994
            ],
            [
              12.5817452,
              44.0447781
            ],
            [
              12.5817234,
              44.044857
            ],
            [
              12.5817463,
              44.0449433
            ],
            [
              12.5817923,
              44.0450141
            ],
            [
              12.5819665,
              44.0451433
            ],
            [
              12.5823981,
              44.0448781
            ]
          ]
        ]
      }
    },
    {
      "type": "Feature",
      "properties": {
        "id": 1196544250,
        "tipo": "scuola",
        "name": "I.P.S.I.A. Leon Battista Alberti"
      },
      "geometry": {
        "type": "Polygon",
        "coordinates": [
          [
            [
              12.5845831,
              44.0467097
            ],
            [
              12.5843635,
              44.0468511
            ],
            [
              12.5845577,
              44.0470093
            ],
            [
              12.5839362,
              44.0474313
            ],
            [
              12.5837461,
              44.0472878
            ],
            [
              12.5835786,
              44.0474038
            ],
            [
              12.5833883,
              44.0472597
            ],
            [
              12.5844189,
              44.0465744
            ],
            [
              12.5845831,
              44.0467097
            ]
          ]
        ]
      }
    },
    {
      "type": "Feature",
      "properties": {
        "id": 1197464929,
        "tipo": "scuola",
        "name": "I.T.T.S. O. Belluzzi L. da Vinci - sede da Vinci"
      },
      "geometry": {
        "type": "Polygon",
        "coordinates": [
          [
            [
              12.5857704,
              44.0476787
            ],
            [
              12.5860794,
              44.0475016
            ],
            [
              12.5862863,
              44.0473753
            ],
            [
              12.5848379,
              44.0461503
            ],
            [
              12.5848333,
              44.0460295
            ],
            [
              12.5847469,
              44.0459497
            ],
            [
              12.5841667,
              44.0463081
            ],
            [
              12.584413,
              44.0465193
            ],
            [
              12.5844489,
              44.046551
            ],
            [
              12.5844285,
              44.0465639
            ],
            [
              12.5848222,
              44.0468849
            ],
            [
              12.5852445,
              44.047238
            ],
            [
              12.5856734,
              44.0475967
            ],
            [
              12.5857704,
              44.0476787
            ]
          ]
        ]
      }
    },
    {
      "type": "Feature",
      "properties": {
        "id": 1197464930,
        "tipo": "scuola",
        "name": "I.T.T.S. O. Belluzzi L. da Vinci - sede Belluzzi"
      },
      "geometry": {
        "type": "Polygon",
        "coordinates": [
          [
            [
              12.5814525,
              44.0480987
            ],
            [
              12.5819069,
              44.0477862
            ],
            [
              12.5822948,
              44.0480851
            ],
            [
              12.5825098,
              44.0479468
            ],
            [
              12.5832628,
              44.0485308
            ],
            [
              12.5823992,
              44.0491171
            ],
            [
              12.58236,
              44.0491258
            ],
            [
              12.5823238,
              44.0491171
            ],
            [
              12.5820186,
              44.0488904
            ],
            [
              12.5822655,
              44.048722
            ],
            [
              12.5814525,
              44.0480987
            ]
          ]
        ]
      }
    },
    {
      "type": "Feature",
      "properties": {
        "id": 1197654837,
        "tipo": "scuola",
        "name": "Scuola primaria G. B. Casti"
      },
      "geometry": {
        "type": "Polygon",
        "coordinates": [
          [
            [
              12.5744269,
              44.0472565
            ],
            [
              12.5736464,
              44.0473642
            ],
            [
              12.5735818,
              44.0471414
            ],
            [
              12.5736121,
              44.0471367
            ],
            [
              12.5735944,
              44.0470762
            ],
            [
              12.5736626,
              44.047065
            ],
            [
              12.5736245,
              44.0469358
            ],
            [
              12.573564,
              44.0469445
            ],
            [
              12.573411,
              44.0464774
            ],
            [
              12.573512,
              44.0463737
            ],
            [
              12.5737357,
              44.0465157
            ],
            [
              12.5738382,
              44.0465808
            ],
            [
              12.5738899,
              44.0465393
            ],
            [
              12.573932,
              44.0465075
            ],
            [
              12.5742406,
              44.0462591
            ],
            [
              12.5743757,
              44.0467236
            ],
            [
              12.5750502,
              44.0466902
            ],
            [
              12.5750867,
              44.0469822
            ],
            [
              12.5754587,
              44.0469259
            ],
            [
              12.5755199,
              44.0471067
            ],
            [
              12.5744269,
              44.0472565
            ]
          ]
        ]
      }
    },
    {
      "type": "Feature",
      "properties": {
        "id": 1198821850,
        "tipo": "asilo",
        "name": "Scuola dell'infanzia Al 'zgheli"
      },
      "geometry": {
        "type": "Polygon",
        "coordinates": [
          [
            [
              12.4813342,
              44.0673014
            ],
            [
              12.4812886,
              44.0668937
            ],
            [
              12.4811855,
              44.0669013
            ],
            [
              12.4811612,
              44.0667203
            ],
            [
              12.4805943,
              44.0667765
            ],
            [
              12.4805978,
              44.0668365
            ],
            [
              12.4806886,
              44.0669455
            ],
            [
              12.4806431,
              44.0671483
            ],
            [
              12.4806652,
              44.0673604
            ],
            [
              12.4813342,
              44.0673014
            ]
          ]
        ]
      }
    },
    {
      "type": "Feature",
      "properties": {
        "id": 1198821851,
        "tipo": "scuola",
        "name": "Scuola primaria M. Zoebeli"
      },
      "geometry": {
        "type": "Polygon",
        "coordinates": [
          [
            [
              12.4812306,
              44.0660295
            ],
            [
              12.4812821,
              44.066327
            ],
            [
              12.4801461,
              44.0664522
            ],
            [
              12.4801373,
              44.0659808
            ],
            [
              12.4812306,
              44.0660295
            ]
          ]
        ]
      }
    },
    {
      "type": "Feature",
      "properties": {
        "id": 1202811111,
        "tipo": "scuola",
        "name": "Scuola primaria Gianni Rodari"
      },
      "geometry": {
        "type": "Polygon",
        "coordinates": [
          [
            [
              12.5562659,
              44.0465252
            ],
            [
              12.5568275,
              44.0461715
            ],
            [
              12.5560623,
              44.0455439
            ],
            [
              12.5554128,
              44.045953
            ],
            [
              12.5558184,
              44.0462857
            ],
            [
              12.5559063,
              44.0462304
            ],
            [
              12.5562659,
              44.0465252
            ]
          ]
        ]
      }
    },
    {
      "type": "Feature",
      "properties": {
        "id": 1205977855,
        "tipo": "asilo",
        "name": "Scuola dell'infanzia Il Glicine"
      },
      "geometry": {
        "type": "Polygon",
        "coordinates": [
          [
            [
              12.5504457,
              44.0616847
            ],
            [
              12.5501858,
              44.0613742
            ],
            [
              12.5501577,
              44.0613858
            ],
            [
              12.5501429,
              44.0613675
            ],
            [
              12.5501161,
              44.0613783
            ],
            [
              12.5500872,
              44.06139
            ],
            [
              12.5500505,
              44.0613451
            ],
            [
              12.5496278,
              44.0615237
            ],
            [
              12.5498317,
              44.0617383
            ],
            [
              12.5501592,
              44.0617532
            ],
            [
              12.5504457,
              44.0616847
            ]
          ]
        ]
      }
    },
    {
      "type": "Feature",
      "properties": {
        "id": 1205977857,
        "tipo": "asilo",
        "name": "Scuola dell'infanzia La Rondine"
      },
      "geometry": {
        "type": "Polygon",
        "coordinates": [
          [
            [
              12.5504541,
              44.0616829
            ],
            [
              12.5509623,
              44.0615599
            ],
            [
              12.5509845,
              44.0615257
            ],
            [
              12.5506117,
              44.0611462
            ],
            [
              12.5505585,
              44.0611363
            ],
            [
              12.5502538,
              44.0612638
            ],
            [
              12.5503015,
              44.0613275
            ],
            [
              12.5501934,
              44.0613711
            ],
            [
              12.5504541,
              44.0616829
            ]
          ]
        ]
      }
    },
    {
      "type": "Feature",
      "properties": {
        "id": 1205983346,
        "tipo": "asilo",
        "name": "Scuola dell'infanzia Il Girasole"
      },
      "geometry": {
        "type": "Polygon",
        "coordinates": [
          [
            [
              12.5411463,
              44.0558148
            ],
            [
              12.5409798,
              44.0557801
            ],
            [
              12.5410769,
              44.0552813
            ],
            [
              12.5410994,
              44.0552319
            ],
            [
              12.5411348,
              44.0551888
            ],
            [
              12.5411949,
              44.055161
            ],
            [
              12.5412668,
              44.0551525
            ],
            [
              12.5413344,
              44.0551641
            ],
            [
              12.5414085,
              44.0551991
            ],
            [
              12.5418265,
              44.0555122
            ],
            [
              12.5414621,
              44.0557552
            ],
            [
              12.5411463,
              44.0558148
            ]
          ]
        ]
      }
    },
    {
      "type": "Feature",
      "properties": {
        "id": 1206002600,
        "tipo": "scuola",
        "name": "Scuola primaria Mario Lodi"
      },
      "geometry": {
        "type": "Polygon",
        "coordinates": [
          [
            [
              12.5421163,
              44.0513857
            ],
            [
              12.5426814,
              44.0510413
            ],
            [
              12.5426985,
              44.0510167
            ],
            [
              12.542694,
              44.0509881
            ],
            [
              12.5422285,
              44.0505064
            ],
            [
              12.541827,
              44.0506056
            ],
            [
              12.5414169,
              44.0510667
            ],
            [
              12.5418508,
              44.0512471
            ],
            [
              12.5418706,
              44.0512884
            ],
            [
              12.5421163,
              44.0513857
            ]
          ]
        ]
      }
    },
    {
      "type": "Feature",
      "properties": {
        "id": 1206002601,
        "tipo": "scuola",
        "name": "Scuola primaria S. Fortunato Grazie"
      },
      "geometry": {
        "type": "Polygon",
        "coordinates": [
          [
            [
              12.5493721,
              44.032111
            ],
            [
              12.5490672,
              44.0317664
            ],
            [
              12.5495891,
              44.0315306
            ],
            [
              12.5496682,
              44.0316911
            ],
            [
              12.5497141,
              44.031826
            ],
            [
              12.5496975,
              44.031915
            ],
            [
              12.5496299,
              44.0319847
            ],
            [
              12.5493721,
              44.032111
            ]
          ]
        ]
      }
    },
    {
      "type": "Feature",
      "properties": {
        "id": 1206002608,
        "tipo": "scuola",
        "name": "Scuola primaria Santa Cristina"
      },
      "geometry": {
        "type": "Polygon",
        "coordinates": [
          [
            [
              12.4856099,
              44.0056134
            ],
            [
              12.4854687,
              44.0057223
            ],
            [
              12.4857866,
              44.0057153
            ],
            [
              12.4861462,
              44.0056438
            ],
            [
              12.4863412,
              44.0057791
            ],
            [
              12.4860135,
              44.0059864
            ],
            [
              12.4855752,
              44.0060147
            ],
            [
              12.4852777,
              44.0061619
            ],
            [
              12.4853331,
              44.0062148
            ],
            [
              12.4852366,
              44.0062577
            ],
            [
              12.4845778,
              44.005836
            ],
            [
              12.4848124,
              44.0054979
            ],
            [
              12.4854836,
              44.0055472
            ],
            [
              12.4856099,
              44.0056134
            ]
          ]
        ]
      }
    },
    {
      "type": "Feature",
      "properties": {
        "id": 1206002612,
        "tipo": "scuola",
        "name": "Nido d'infanzia Il Grillo parlante"
      },
      "geometry": {
        "type": "Polygon",
        "coordinates": [
          [
            [
              12.5113034,
              44.0504762
            ],
            [
              12.511462,
              44.0501016
            ],
            [
              12.5114945,
              44.0500675
            ],
            [
              12.5115414,
              44.050059
            ],
            [
              12.51165,
              44.0500828
            ],
            [
              12.5116216,
              44.0501498
            ],
            [
              12.511705,
              44.0501681
            ],
            [
              12.5117212,
              44.0501296
            ],
            [
              12.5122867,
              44.0502534
            ],
            [
              12.5122784,
              44.050273
            ],
            [
              12.5126994,
              44.050365
            ],
            [
              12.5125381,
              44.0507462
            ],
            [
              12.5113034,
              44.0504762
            ]
          ]
        ]
      }
    },
    {
      "type": "Feature",
      "properties": {
        "id": 1206002614,
        "tipo": "scuola",
        "name": "Scuola primaria Spadarolo"
      },
      "geometry": {
        "type": "Polygon",
        "coordinates": [
          [
            [
              12.5118499,
              44.0492973
            ],
            [
              12.5115935,
              44.0498777
            ],
            [
              12.5128001,
              44.0501204
            ],
            [
              12.5130527,
              44.0494394
            ],
            [
              12.5118499,
              44.0492973
            ]
          ]
        ]
      }
    },
    {
      "type": "Feature",
      "properties": {
        "id": 1206002620,
        "tipo": "scuola",
        "name": "Scuola primaria Corpolò"
      },
      "geometry": {
        "type": "Polygon",
        "coordinates": [
          [
            [
              12.4517682,
              44.0183586
            ],
            [
              12.4520882,
              44.0181623
            ],
            [
              12.4522655,
              44.0183046
            ],
            [
              12.4519403,
              44.0185071
            ],
            [
              12.4517682,
              44.0183586
            ]
          ]
        ]
      }
    },
    {
      "type": "Feature",
      "properties": {
        "id": 1206002622,
        "tipo": "scuola",
        "name": "Scuola secondaria I grado A. Marvelli"
      },
      "geometry": {
        "type": "Polygon",
        "coordinates": [
          [
            [
              12.5513792,
              44.0430757
            ],
            [
              12.5512265,
              44.0419754
            ],
            [
              12.5525256,
              44.0418822
            ],
            [
              12.5526782,
              44.0429827
            ],
            [
              12.5513792,
              44.0430757
            ]
          ]
        ]
      }
    },
    {
      "type": "Feature",
      "properties": {
        "id": 1206849207,
        "tipo": "scuola",
        "name": "Scuola primaria Case nuove"
      },
      "geometry": {
        "type": "Polygon",
        "coordinates": [
          [
            [
              12.5055156,
              44.079864
            ],
            [
              12.5056112,
              44.0802543
            ],
            [
              12.5054003,
              44.0802527
            ],
            [
              12.5052473,
              44.0802425
            ],
            [
              12.5051125,
              44.0802284
            ],
            [
              12.5050278,
              44.079927
            ],
            [
              12.5055156,
              44.079864
            ]
          ]
        ]
      }
    },
    {
      "type": "Feature",
      "properties": {
        "id": 1206976438,
        "tipo": "scuola",
        "name": "Scuola primaria L. Ferrari"
      },
      "geometry": {
        "type": "Polygon",
        "coordinates": [
          [
            [
              12.5708884,
              44.0644955
            ],
            [
              12.5704245,
              44.0647442
            ],
            [
              12.5698391,
              44.0642013
            ],
            [
              12.5701346,
              44.0640556
            ],
            [
              12.5704303,
              44.0643483
            ],
            [
              12.5706362,
              44.0642426
            ],
            [
              12.5708884,
              44.0644955
            ]
          ]
        ]
      }
    },
    {
      "type": "Feature",
      "properties": {
        "id": 1211604831,
        "tipo": "scuola",
        "name": "Scuola secondaria I grado Dante Alighieri"
      },
      "geometry": {
        "type": "Polygon",
        "coordinates": [
          [
            [
              12.5632092,
              44.0705777
            ],
            [
              12.5635339,
              44.0711391
            ],
            [
              12.5641788,
              44.0706965
            ],
            [
              12.5638754,
              44.0701484
            ],
            [
              12.5632092,
              44.0705777
            ]
          ]
        ]
      }
    },
    {
      "type": "Feature",
      "properties": {
        "id": 1211836999,
        "tipo": "asilo",
        "name": "Scuola d'infanzia non paritaria E Kids Suor Angela Molari"
      },
      "geometry": {
        "type": "Polygon",
        "coordinates": [
          [
            [
              12.5866801,
              44.0432406
            ],
            [
              12.5869409,
              44.0430489
            ],
            [
              12.5872476,
              44.0432611
            ],
            [
              12.5873213,
              44.043213
            ],
            [
              12.5875508,
              44.0433957
            ],
            [
              12.5872255,
              44.0436093
            ],
            [
              12.5866801,
              44.0432406
            ]
          ]
        ]
      }
    },
    {
      "type": "Feature",
      "properties": {
        "id": 1223249489,
        "tipo": "asilo",
        "name": "Scuola dell'infanzia La Coccinella"
      },
      "geometry": {
        "type": "Polygon",
        "coordinates": [
          [
            [
              12.5626886,
              44.0457243
            ],
            [
              12.5630345,
              44.0459882
            ],
            [
              12.5635877,
              44.0456134
            ],
            [
              12.5632417,
              44.0453496
            ],
            [
              12.5626886,
              44.0457243
            ]
          ]
        ]
      }
    },
    {
      "type": "Feature",
      "properties": {
        "id": 1268729835,
        "tipo": "scuola",
        "name": "Scuola primaria Decio Raggi"
      },
      "geometry": {
        "type": "Polygon",
        "coordinates": [
          [
            [
              12.5650185,
              44.0661562
            ],
            [
              12.5640761,
              44.0663908
            ],
            [
              12.5638426,
              44.0659067
            ],
            [
              12.564785,
              44.0656721
            ],
            [
              12.5650185,
              44.0661562
            ]
          ]
        ]
      }
    },
    {
      "type": "Feature",
      "properties": {
        "id": 1313252354,
        "tipo": "scuola",
        "name": "Scuola primaria La Gabbianella"
      },
      "geometry": {
        "type": "Polygon",
        "coordinates": [
          [
            [
              12.5773464,
              44.0393774
            ],
            [
              12.577672,
              44.0390027
            ],
            [
              12.5771525,
              44.0387694
            ],
            [
              12.576827,
              44.0391441
            ],
            [
              12.5773464,
              44.0393774
            ]
          ]
        ]
      }
    },
    {
      "type": "Feature",
      "properties": {
        "id": 1342771769,
        "tipo": "asilo",
        "name": "Scuola dell'infanzia Cristo Re"
      },
      "geometry": {
        "type": "Polygon",
        "coordinates": [
          [
            [
              12.5636499,
              44.0499914
            ],
            [
              12.5646518,
              44.0494448
            ],
            [
              12.5640738,
              44.0490002
            ],
            [
              12.5636982,
              44.049261
            ],
            [
              12.5634222,
              44.0490498
            ],
            [
              12.5633469,
              44.0491048
            ],
            [
              12.563614,
              44.0493089
            ],
            [
              12.5631723,
              44.0496155
            ],
            [
              12.5636499,
              44.0499914
            ]
          ]
        ]
      }
    },
    {
      "type": "Feature",
      "properties": {
        "id": 1449917521,
        "tipo": "asilo",
        "name": "Scuola dell'infanzia Il Gabbiano"
      },
      "geometry": {
        "type": "Polygon",
        "coordinates": [
          [
            [
              12.568517,
              44.0699066
            ],
            [
              12.5682037,
              44.0700184
            ],
            [
              12.5679167,
              44.0696628
            ],
            [
              12.5682218,
              44.0695507
            ],
            [
              12.568517,
              44.0699066
            ]
          ]
        ]
      }
    },
    {
      "type": "Feature",
      "properties": {
        "id": 1449917524,
        "tipo": "scuola",
        "name": "Scuola primaria Madre Teresa di Calcutta"
      },
      "geometry": {
        "type": "Polygon",
        "coordinates": [
          [
            [
              12.5672555,
              44.071847
            ],
            [
              12.5672861,
              44.0718146
            ],
            [
              12.5669184,
              44.0712234
            ],
            [
              12.5664981,
              44.071363
            ],
            [
              12.566542,
              44.0714348
            ],
            [
              12.5663028,
              44.071495
            ],
            [
              12.5666033,
              44.0719722
            ],
            [
              12.5672555,
              44.071847
            ]
          ]
        ]
      }
    }
  ]
}